AETHER-2                
1 58299U 23174AV  26068.71793741  .00008341  00000+0  26166-3 0  9990
2 58299  97.3931 151.9008 0008630 139.5247 220.6639 15.33264165129982
STARLINK-32235          
1 60739U 24152V   26068.72452492 -.00004827  00000+0 -15117-3 0  9996
2 60739  53.1586 268.4462 0001079  89.0280 271.0845 15.30156512 86809
